NORAD_CAT_ID,OBJECT_NAME,OBJECT_TYPE,EPOCH,MEAN_MOTION,ECCENTRICITY,INCLINATION,RA_OF_ASC_NODE,ARG_OF_PERICENTER,MEAN_ANOMALY,BSTAR,MEAN_MOTION_DOT,MEAN_MOTION_DDOT,TLE_LINE0,TLE_LINE1,TLE_LINE2,SEMIMAJOR_AXIS,PERIOD,APOGEE,PERIGEE,DECAYED
52667.0,STARLINK-4076,PAYLOAD,2022-12-26 17:16:09,15.08841815,0.0002758,53.219,1.8435,30.6627,329.4526,4.6311e-05,4.49e-06,0.0,0 STARLINK-4076,1 52667U 22053M   22360.71955529  .00000449  00000-0  46311-4 0  9990,2 52667  53.2190   1.8435 0002758  30.6627 329.4526 15.08841815 34576,6917.875,95.437,541.648,537.832,0.0
52667.0,STARLINK-4076,PAYLOAD,2022-12-26 23:37:41,15.08847947,0.0002552,53.2182,0.6533,28.4349,331.6782,0.00012623,1.722e-05,0.0,0 STARLINK-4076,1 52667U 22053M   22360.98450876  .00001722  00000-0  12623-3 0  9997,2 52667  53.2182   0.6533 0002552  28.4349 331.6782 15.08847947 34617,6917.856,95.437,541.487,537.956,0.0
52667.0,STARLINK-4076,PAYLOAD,2022-12-27 09:10:00,15.08852268,0.0002579,53.218,358.8691,27.7904,332.3226,0.00010981,1.46e-05,0.0,0 STARLINK-4076,1 52667U 22053M   22361.38194463  .00001460  00000-0  10981-3 0  9993,2 52667  53.2180 358.8691 0002579  27.7904 332.3226 15.08852268 34675,6917.843000000003,95.437,541.492,537.924,0.0
52667.0,STARLINK-4076,PAYLOAD,2022-12-27 17:06:55,15.08853202,0.0002493,53.2181,357.3824,29.6445,330.4688,0.00022888,3.358e-05,0.0,0 STARLINK-4076,1 52667U 22053M   22361.71314033  .00003358  00000-0  22888-3 0  9994,2 52667  53.2181 357.3824 0002493  29.6445 330.4688 15.08853202 34720,6917.84,95.437,541.43,537.98,0.0
52667.0,STARLINK-4076,PAYLOAD,2022-12-28 09:00:47,15.0884543,0.0002561,53.2178,354.4084,33.166,326.9492,9.9327e-05,1.293e-05,0.0,0 STARLINK-4076,1 52667U 22053M   22362.37554399  .00001293  00000-0  99327-4 0  9997,2 52667  53.2178 354.4084 0002561  33.1660 326.9492 15.08845430 34825,6917.864000000001,95.437,541.5,537.957,0.0
52667.0,STARLINK-4076,PAYLOAD,2022-12-28 23:19:15,15.08833658,0.0002618999999999,53.2178,351.7324,35.0271,325.0893,-0.00019939,-3.46e-05,0.0,0 STARLINK-4076,1 52667U 22053M   22362.97171007 -.00003460  00000-0 -19939-3 0  9994,2 52667  53.2178 351.7324 0002619  35.0271 325.0893 15.08833658 34919,6917.9,95.438,541.577,537.953,0.0
52667.0,STARLINK-4076,PAYLOAD,2022-12-29 08:51:35,15.08832739,0.0002599,53.2187,349.949,30.1926,329.9215,-0.00016789,-2.959e-05,0.0,0 STARLINK-4076,1 52667U 22053M   22363.36916071 -.00002959  00000-0 -16789-3 0  9998,2 52667  53.2187 349.9490 0002599  30.1926 329.9215 15.08832739 34978,6917.903,95.438,541.566,537.97,0.0
52667.0,STARLINK-4076,PAYLOAD,2022-12-29 10:26:58,15.08832693,0.0002665,53.218,349.6516,27.1111,333.0019999999999,-0.00016031,-2.839e-05,0.0,0 STARLINK-4076,1 52667U 22053M   22363.43540087 -.00002839  00000-0 -16031-3 0  9993,2 52667  53.2180 349.6516 0002665  27.1111 333.0020 15.08832693 34983,6917.903,95.438,541.611,537.924,0.0
52667.0,STARLINK-4076,PAYLOAD,2022-12-30 10:17:45,15.08838938,0.0002586,53.2183,345.1908,32.7219,327.3933,6.7999e-06,-1.8e-06,0.0,0 STARLINK-4076,1 52667U 22053M   22364.42900082 -.00000180  00000-0  67999-5 0  9995,2 52667  53.2183 345.1908 0002586  32.7219 327.3933 15.08838938 35130,6917.884,95.438,541.538,537.96,0.0
52667.0,STARLINK-4076,PAYLOAD,2022-12-30 23:00:50,15.08844535,0.0002573,53.2182,342.8123,29.7446,330.3692,0.00032158,4.834e-05,0.0,0 STARLINK-4076,1 52667U 22053M   22364.95891264  .00004834  00000-0  32158-3 0  9990,2 52667  53.2182 342.8123 0002573  29.7446 330.3692 15.08844535 35211,6917.8669999999975,95.437,541.511,537.952,0.0
52667.0,STARLINK-4076,PAYLOAD,2022-12-31 10:08:32,15.088714,0.0002618999999999,53.2174,340.731,31.5671,328.5478,0.00091739,0.00014355,0.0,0 STARLINK-4076,1 52667U 22053M   22365.42259456  .00014355  00000-0  91739-3 0  9993,2 52667  53.2174 340.7310 0002619  31.5671 328.5478 15.08871400 35288,6917.784000000002,95.436,541.461,537.8380000000002,0.0
52667.0,STARLINK-4076,PAYLOAD,2023-01-01 05:13:09,15.0884417,0.0002489,53.2178,337.1627,26.0404,334.0713,-0.0004085,-6.785e-05,0.0,0 STARLINK-4076,1 52667U 22053M   23001.21747052 -.00006785  00000-0 -40850-3 0  9990,2 52667  53.2178 337.1627 0002489  26.0404 334.0713 15.08844170 35403,6917.868,95.437,541.455,538.011,0.0
52667.0,STARLINK-4076,PAYLOAD,2023-01-01 09:59:19,15.08837309,0.000249,53.2175,336.2707,25.1575,334.9538,-0.00028495,-4.820000000000001e-05,0.0,0 STARLINK-4076,1 52667U 22053M   23001.41619294 -.00004820  00000-0 -28495-3 0  9997,2 52667  53.2175 336.2707 0002490  25.1575 334.9538 15.08837309 35433,6917.889,95.438,541.476,538.031,0.0
52667.0,STARLINK-4076,PAYLOAD,2023-01-01 14:45:28,15.08831703,0.0002481,53.2174,335.3783,24.8978,335.2134,7.3144000000000015e-06,-1.72e-06,0.0,0 STARLINK-4076,1 52667U 22053M   23001.61491681 -.00000172  00000-0  73144-5 0  9995,2 52667  53.2174 335.3783 0002481  24.8978 335.2134 15.08831703 35460,6917.906,95.438,541.487,538.054,0.0
52667.0,STARLINK-4076,PAYLOAD,2023-01-02 14:36:16,15.08851241,0.0002441999999999,53.2169,330.918,24.4841,335.6266,0.0010917,0.00017135,0.0,0 STARLINK-4076,1 52667U 22053M   23002.60852155  .00017135  00000-0  10917-2 0  9994,2 52667  53.2169 330.9180 0002442  24.4841 335.6266 15.08851241 35614,6917.846,95.437,541.4,538.0219999999998,0.0
52667.0,STARLINK-4076,PAYLOAD,2023-01-03 09:40:53,15.0885108,0.0002352,53.2188,327.3511,34.9235,325.1912,0.00040842,6.22e-05,0.0,0 STARLINK-4076,1 52667U 22053M   23003.40339968  .00006220  00000-0  40842-3 0  9999,2 52667  53.2188 327.3511 0002352  34.9235 325.1912 15.08851080 35732,6917.847,95.437,541.339,538.0840000000002,0.0
52667.0,STARLINK-4076,PAYLOAD,2023-01-03 14:27:03,15.08841285,0.0002525999999999,53.2174,326.4577,30.2548,329.8589,5.7018e-05,6.19e-06,0.0,0 STARLINK-4076,1 52667U 22053M   23003.60212152  .00000619  00000-0  57018-4 0  9996,2 52667  53.2174 326.4577 0002526  30.2548 329.8589 15.08841285 35768,6917.876,95.437,541.489,537.994,0.0
52667.0,STARLINK-4076,PAYLOAD,2023-01-04 01:34:45,15.08832937,0.0002602,53.2182,324.3755,30.3498,329.7645,-2.2294e-06,-3.24e-06,0.0,0 STARLINK-4076,1 52667U 22053M   23004.06580668 -.00000324  00000-0 -22294-5 0  9991,2 52667  53.2182 324.3755 0002602  30.3498 329.7645 15.08832937 35836,6917.901999999999,95.438,541.567,537.967,0.0
52667.0,STARLINK-4076,PAYLOAD,2023-01-04 14:17:49,15.08857072,0.0002491,53.2187,321.9982,31.9377,328.1766,0.00027595,4.108e-05,0.0,0 STARLINK-4076,1 52667U 22053M   23004.59571554  .00004108  00000-0  27595-3 0  9992,2 52667  53.2187 321.9982 0002491  31.9377 328.1766 15.08857072 35918,6917.828,95.436,541.4159999999998,537.97,0.0
52667.0,STARLINK-4076,PAYLOAD,2023-01-05 07:47:03,15.08872182,0.0002409,53.2178,318.7265,30.8496,329.2637,0.00065963,0.00010235,0.0,0 STARLINK-4076,1 52667U 22053M   23005.32434581  .00010235  00000-0  65963-3 0  9991,2 52667  53.2178 318.7265 0002409  30.8496 329.2637 15.08872182 36026,6917.781999999997,95.436,541.314,537.981,0.0
52667.0,STARLINK-4076,PAYLOAD,2023-01-05 14:08:35,15.08870158,0.0002398,53.2169,317.5359,27.8331,332.2789,0.00044158,6.752e-05,0.0,0 STARLINK-4076,1 52667U 22053M   23005.58930167  .00006752  00000-0  44158-3 0  9992,2 52667  53.2169 317.5359 0002398  27.8331 332.2789 15.08870158 36065,6917.788000000001,95.436,541.312,537.994,0.0
52667.0,STARLINK-4076,PAYLOAD,2023-01-06 07:37:50,15.08834447,0.0002503,53.2172,314.2656,29.7508,330.3626,-0.00042791,-7.091e-05,0.0,0 STARLINK-4076,1 52667U 22053M   23006.31794503 -.00007091  00000-0 -42791-3 0  9996,2 52667  53.2172 314.2656 0002503  29.7508 330.3626 15.08834447 36170,6917.897,95.438,541.494,538.031,0.0
52667.0,STARLINK-4076,PAYLOAD,2023-01-06 21:56:19,15.08819499,0.0002628,53.2172,311.5891,35.9217,324.1952,0.00030021,4.49e-05,0.0,0 STARLINK-4076,1 52667U 22053M   23006.91411829  .00004490  00000-0  30021-3 0  9990,2 52667  53.2172 311.5891 0002628  35.9217 324.1952 15.08819499 36268,6917.943,95.439,541.626,537.99,0.0
52667.0,STARLINK-4076,PAYLOAD,2023-01-07 05:53:15,15.08836034,0.000256,53.2175,310.1025,32.1893,327.9255,0.0011993,0.00018849,0.0,0 STARLINK-4076,1 52667U 22053M   23007.24532084  .00018849  00000-0  11993-2 0  9993,2 52667  53.2175 310.1025 0002560  32.1893 327.9255 15.08836034 36316,6917.893,95.438,541.528,537.987,0.0
52667.0,STARLINK-4076,PAYLOAD,2023-01-07 07:28:38,15.08840515,0.0002578,53.2175,309.8052,29.5847,330.529,0.0012302,0.00019346,0.0,0 STARLINK-4076,1 52667U 22053M   23007.31156036  .00019346  00000-0  12302-2 0  9998,2 52667  53.2175 309.8052 0002578  29.5847 330.5290 15.08840515 36328,6917.879,95.438,541.5269999999998,537.96,0.0
52667.0,STARLINK-4076,PAYLOAD,2023-01-08 02:33:16,15.08853176,0.000253,53.2177,306.2376,31.0587,329.0554,0.00097075,0.00015201,0.0,0 STARLINK-4076,1 52667U 22053M   23008.10644173  .00015201  00000-0  97075-3 0  9997,2 52667  53.2177 306.2376 0002530  31.0587 329.0554 15.08853176 36443,6917.84,95.437,541.455,537.955,0.0
52667.0,STARLINK-4076,PAYLOAD,2023-01-08 20:02:30,15.08863752,0.0002587,53.2179,302.9661,34.0154,326.1004,0.00084708,0.00013228,0.0,0 STARLINK-4076,1 52667U 22053M   23008.83507542  .00013228  00000-0  84708-3 0  9991,2 52667  53.2179 302.9661 0002587  34.0154 326.1004 15.08863752 36551,6917.808000000001,95.436,541.462,537.883,0.0
52667.0,STARLINK-4076,PAYLOAD,2023-01-09 11:56:21,15.08848485,0.0002511,53.2175,299.9932,27.5732,332.5393,2.7482e-05,1.49e-06,0.0,0 STARLINK-4076,1 52667U 22053M   23009.49747108  .00000149  00000-0  27482-4 0  9993,2 52667  53.2175 299.9932 0002511  27.5732 332.5393 15.08848485 36658,6917.854,95.437,541.457,537.982,0.0
52667.0,STARLINK-4076,PAYLOAD,2023-01-10 05:25:36,15.08839945,0.0002452,53.2177,296.7243,34.1209,325.9941,-8.6025e-05,-1.657e-05,0.0,0 STARLINK-4076,1 52667U 22053M   23010.22611489 -.00001657  00000-0 -86025-4 0  9993,2 52667  53.2177 296.7243 0002452  34.1209 325.9941 15.08839945 36765,6917.880999999999,95.438,541.442,538.049,0.0
